GORIZONT 25             
1 21922U 92017A   13109.03647247 -.00000150  00000-0  10000-3 0  7676
2 21922  13.8727  27.2723 0028227 348.2417  11.6599  0.99859810 76945
GORIZONT 26             
1 22041U 92043A   13107.66222610 -.00000226  00000-0  10000-3 0  3948
2 22041  13.8003  28.7522 0030388 136.3072 223.8956  0.99243233 75772
GORIZONT 27             
1 22245U 92082A   13107.64431370  .00000027  00000-0  00000+0 0  8892
2 22245  13.7189  29.3475 0009915 277.9948 193.5635  1.00140189 78973
GORIZONT 28             
1 22880U 93069A   13109.70910885 -.00000211  00000-0  10000-3 0  7783
2 22880  13.3793  32.5612 0036241  38.7466 321.4763  0.99650686 71246
GORIZONT 29             
1 22907U 93072A   13105.00710280  .00000049  00000-0  10000-3 0   953
2 22907  13.3355  32.5189 0008560 249.8163 110.0453  1.00157691 71026
GORIZONT 30             
1 23108U 94030A   13105.19237310 -.00000373  00000-0  10000-3 0  9006
2 23108  13.2166  33.5867 0003412  72.8989 287.0902  1.00196798 69251
GORIZONT 31             
1 23775U 96005A   13108.82114280 -.00000055  00000-0  10000-3 0  4027
2 23775  12.3660  38.9956 0020973 101.2770 258.9206  0.99883014 63039
GORIZONT 32             
1 23880U 96034A   13109.41378736 -.00000125  00000-0  10000-3 0  2442
2 23880  12.2413  39.7974 0007050 255.5035 323.2193  1.00142818 61883
GORIZONT 33             
1 26372U 00029A   13107.43583280 -.00000072  00000-0  00000+0 0   604
2 26372   9.7147  48.6546 0004695  16.4528 185.1998  1.00387401 47201
